start=new Date('2023-06-15T00:00:00.000Z').valueOf();
sats=[{"COUNTRY_CODE":"US","MEAN_MOTION":"15.04483787","FILE":"3933215","APOAPSIS":"554.159","ARG_OF_PERICENTER":"275.2691","EPOCH":"2023-06-14T19:57:54.396576","RCS_SIZE":"LARGE","NORAD_CAT_ID":"55997","REV_AT_EPOCH":"1265","BSTAR":"0.00000579340000","ECCENTRICITY":"0.00015390","MEAN_MOTION_DOT":"-0.00000125","SEMIMAJOR_AXIS":"6931.228","TLE_LINE2":"2 55997  43.0028  83.8467 0001539 275.2691  84.7976 15.04483787 12652","MEAN_ELEMENT_THEORY":"SGP4","MEAN_ANOMALY":"84.7976","MEAN_MOTION_DDOT":"0.0000000000000","DECAY_DATE":null,"GP_ID":"233949884","OBJECT_ID":"2023-042M","CENTER_NAME":"EARTH","TLE_LINE1":"1 55997U 23042M   23165.83187959 -.00000125  00000-0  57934-5 0  9995","PERIOD":"95.714","REF_FRAME":"TEME","EPHEMERIS_TYPE":"0","CLASSIFICATION_TYPE":"U","ELEMENT_SET_NO":"999","LAUNCH_DATE":"2023-03-24","OBJECT_TYPE":"PAYLOAD","INCLINATION":"43.0028","TIME_SYSTEM":"UTC","OBJECT_NAME":"STARLINK-5904","PERIAPSIS":"552.026","SITE":"AFETR","RA_OF_ASC_NODE":"83.8467"},{"DECAY_DATE":null,"GP_ID":"233948633","OBJECT_ID":"2023-042N","CENTER_NAME":"EARTH","TLE_LINE1":"1 55998U 23042N   23165.82013325  .00000403  00000-0  42898-4 0  9990","PERIOD":"95.714","TIME_SYSTEM":"UTC","OBJECT_NAME":"STARLINK-5902","PERIAPSIS":"552.155","SITE":"AFETR","RA_OF_ASC_NODE":"83.7608","REF_FRAME":"TEME","EPHEMERIS_TYPE":"0","CLASSIFICATION_TYPE":"U","ELEMENT_SET_NO":"999","LAUNCH_DATE":"2023-03-24","OBJECT_TYPE":"PAYLOAD","INCLINATION":"43.0016","RCS_SIZE":"LARGE","NORAD_CAT_ID":"55998","REV_AT_EPOCH":"1265","COUNTRY_CODE":"US","MEAN_MOTION":"15.04482240","FILE":"3933215","APOAPSIS":"554.040","ARG_OF_PERICENTER":"267.2811","EPOCH":"2023-06-14T19:40:59.512800","MEAN_ANOMALY":"92.7876","MEAN_MOTION_DDOT":"0.0000000000000","BSTAR":"0.00004289800000","ECCENTRICITY":"0.00013600","MEAN_MOTION_DOT":"0.00000403","SEMIMAJOR_AXIS":"6931.232","TLE_LINE2":"2 55998  43.0016  83.7608 0001360 267.2811  92.7876 15.04482240 12654","MEAN_ELEMENT_THEORY":"SGP4"},{"ELEMENT_SET_NO":"999","CLASSIFICATION_TYPE":"U","INCLINATION":"43.0014","LAUNCH_DATE":"2023-03-24","OBJECT_TYPE":"PAYLOAD","REF_FRAME":"TEME","EPHEMERIS_TYPE":"0","SITE":"AFETR","RA_OF_ASC_NODE":"83.8309","TIME_SYSTEM":"UTC","OBJECT_NAME":"STARLINK-5901","PERIAPSIS":"552.155","TLE_LINE1":"1 55999U 23042P   23165.82965264  .00000703  00000-0  63985-4 0  9992","PERIOD":"95.714","DECAY_DATE":null,"GP_ID":"233949384","OBJECT_ID":"2023-042P","CENTER_NAME":"EARTH","MEAN_MOTION_DOT":"0.00000703","SEMIMAJOR_AXIS":"6931.236","TLE_LINE2":"2 55999  43.0014  83.8309 0001365 268.4793  91.5894 15.04481115 12656","MEAN_ELEMENT_THEORY":"SGP4","BSTAR":"0.00006398500000","ECCENTRICITY":"0.00013650","MEAN_ANOMALY":"91.5894","MEAN_MOTION_DDOT":"0.0000000000000","ARG_OF_PERICENTER":"268.4793","EPOCH":"2023-06-14T19:54:41.988096","COUNTRY_CODE":"US","MEAN_MOTION":"15.04481115","APOAPSIS":"554.047","FILE":"3933215","NORAD_CAT_ID":"55999","RCS_SIZE":"LARGE","REV_AT_EPOCH":"1265"},{"BSTAR":"0.00003051300000","ECCENTRICITY":"0.00013230","MEAN_MOTION_DOT":"0.00000227","SEMIMAJOR_AXIS":"6931.224","TLE_LINE2":"2 56000  43.0017  83.6416 0001323 270.5356  89.5335 15.04485080 12655","MEAN_ELEMENT_THEORY":"SGP4","MEAN_ANOMALY":"89.5335","MEAN_MOTION_DDOT":"0.0000000000000","COUNTRY_CODE":"US","MEAN_MOTION":"15.04485080","FILE":"3933215","APOAPSIS":"554.006","ARG_OF_PERICENTER":"270.5356","EPOCH":"2023-06-14T19:18:24.127488","NORAD_CAT_ID":"56000","RCS_SIZE":"LARGE","REV_AT_EPOCH":"1265","REF_FRAME":"TEME","EPHEMERIS_TYPE":"0","CLASSIFICATION_TYPE":"U","ELEMENT_SET_NO":"999","OBJECT_TYPE":"PAYLOAD","LAUNCH_DATE":"2023-03-24","INCLINATION":"43.0017","TIME_SYSTEM":"UTC","OBJECT_NAME":"STARLINK-5910","PERIAPSIS":"552.172","SITE":"AFETR","RA_OF_ASC_NODE":"83.6416","DECAY_DATE":null,"OBJECT_ID":"2023-042Q","GP_ID":"233949635","CENTER_NAME":"EARTH","TLE_LINE1":"1 56000U 23042Q   23165.80444592  .00000227  00000-0  30513-4 0  9992","PERIOD":"95.714"},{"ELEMENT_SET_NO":"999","CLASSIFICATION_TYPE":"U","LAUNCH_DATE":"2023-03-24","INCLINATION":"43.0029","OBJECT_TYPE":"PAYLOAD","REF_FRAME":"TEME","EPHEMERIS_TYPE":"0","SITE":"AFETR","RA_OF_ASC_NODE":"83.7188","OBJECT_NAME":"STARLINK-5944","TIME_SYSTEM":"UTC","PERIAPSIS":"552.081","TLE_LINE1":"1 56001U 23042R   23165.81441735 -.00001024  00000-0 -57404-4 0  9996","PERIOD":"95.714","DECAY_DATE":null,"CENTER_NAME":"EARTH","GP_ID":"233950385","OBJECT_ID":"2023-042R","SEMIMAJOR_AXIS":"6931.223","MEAN_MOTION_DOT":"-0.00001024","MEAN_ELEMENT_THEORY":"SGP4","TLE_LINE2":"2 56001  43.0029  83.7188 0001453 268.2964  91.7712 15.04485173 12656","ECCENTRICITY":"0.00014530","BSTAR":"-0.00005740400000","MEAN_ANOMALY":"91.7712","MEAN_MOTION_DDOT":"0.0000000000000","EPOCH":"2023-06-14T19:32:45.659040","ARG_OF_PERICENTER":"268.2964","COUNTRY_CODE":"US","FILE":"3933215","APOAPSIS":"554.096","MEAN_MOTION":"15.04485173","NORAD_CAT_ID":"56001","RCS_SIZE":"LARGE","REV_AT_EPOCH":"1265"},{"EPOCH":"2023-06-14T19:23:07.228320","ARG_OF_PERICENTER":"272.2293","APOAPSIS":"553.948","FILE":"3933215","MEAN_MOTION":"15.04487252","COUNTRY_CODE":"US","REV_AT_EPOCH":"1265","RCS_SIZE":"LARGE","NORAD_CAT_ID":"56002","MEAN_ELEMENT_THEORY":"SGP4","TLE_LINE2":"2 56002  43.0026  83.6672 0001249 272.2293  87.8407 15.04487252 12651","SEMIMAJOR_AXIS":"6931.217","MEAN_MOTION_DOT":"-0.00000481","ECCENTRICITY":"0.00012490","BSTAR":"-0.00001922200000","MEAN_MOTION_DDOT":"0.0000000000000","MEAN_ANOMALY":"87.8407","PERIOD":"95.714","TLE_LINE1":"1 56002U 23042S   23165.80772255 -.00000481  00000-0 -19222-4 0  9992","CENTER_NAME":"EARTH","OBJECT_ID":"2023-042S","GP_ID":"233949134","DECAY_DATE":null,"OBJECT_TYPE":"PAYLOAD","LAUNCH_DATE":"2023-03-24","INCLINATION":"43.0026","CLASSIFICATION_TYPE":"U","ELEMENT_SET_NO":"999","EPHEMERIS_TYPE":"0","REF_FRAME":"TEME","SITE":"AFETR","RA_OF_ASC_NODE":"83.6672","PERIAPSIS":"552.216","OBJECT_NAME":"STARLINK-5799","TIME_SYSTEM":"UTC"},{"DECAY_DATE":null,"GP_ID":"233948884","OBJECT_ID":"2023-042T","CENTER_NAME":"EARTH","TLE_LINE1":"1 56003U 23042T   23165.82340828  .00001276  00000-0  10420-3 0  9993","PERIOD":"95.714","REF_FRAME":"TEME","EPHEMERIS_TYPE":"0","ELEMENT_SET_NO":"999","CLASSIFICATION_TYPE":"U","OBJECT_TYPE":"PAYLOAD","LAUNCH_DATE":"2023-03-24","INCLINATION":"43.0012","TIME_SYSTEM":"UTC","OBJECT_NAME":"STARLINK-5789","PERIAPSIS":"552.183","RA_OF_ASC_NODE":"83.7843","SITE":"AFETR","COUNTRY_CODE":"US","MEAN_MOTION":"15.04485955","APOAPSIS":"553.989","FILE":"3933215","ARG_OF_PERICENTER":"271.0094","EPOCH":"2023-06-14T19:45:42.475392","RCS_SIZE":"LARGE","NORAD_CAT_ID":"56003","REV_AT_EPOCH":"1265","BSTAR":"0.00010420000000","ECCENTRICITY":"0.00013030","MEAN_MOTION_DOT":"0.00001276","SEMIMAJOR_AXIS":"6931.221","TLE_LINE2":"2 56003  43.0012  83.7843 0001303 271.0094  89.0600 15.04485955 12652","MEAN_ELEMENT_THEORY":"SGP4","MEAN_ANOMALY":"89.0600","MEAN_MOTION_DDOT":"0.0000000000000"},{"CENTER_NAME":"EARTH","GP_ID":"233950136","OBJECT_ID":"2023-042U","DECAY_DATE":null,"PERIOD":"95.714","TLE_LINE1":"1 56004U 23042U   23165.60470620 -.00000334  00000-0 -88937-5 0  9990","PERIAPSIS":"552.071","OBJECT_NAME":"STARLINK-5787","TIME_SYSTEM":"UTC","SITE":"AFETR","RA_OF_ASC_NODE":"84.7233","EPHEMERIS_TYPE":"0","REF_FRAME":"TEME","INCLINATION":"43.0023","LAUNCH_DATE":"2023-03-24","OBJECT_TYPE":"PAYLOAD","CLASSIFICATION_TYPE":"U","ELEMENT_SET_NO":"999","REV_AT_EPOCH":"1262","RCS_SIZE":"LARGE","NORAD_CAT_ID":"56004","FILE":"3933215","APOAPSIS":"554.079","MEAN_MOTION":"15.04489569","COUNTRY_CODE":"US","EPOCH":"2023-06-14T14:30:46.615680","ARG_OF_PERICENTER":"272.1957","MEAN_MOTION_DDOT":"0.0000000000000","MEAN_ANOMALY":"87.8720","ECCENTRICITY":"0.00014480","BSTAR":"-0.00000889370000","MEAN_ELEMENT_THEORY":"SGP4","TLE_LINE2":"2 56004  43.0023  84.7233 0001448 272.1957  87.8720 15.04489569 12620","SEMIMAJOR_AXIS":"6931.210","MEAN_MOTION_DOT":"-0.00000334"},{"ARG_OF_PERICENTER":"270.3147","EPOCH":"2023-06-14T19:28:36.272352","MEAN_MOTION":"15.04483672","FILE":"3933215","APOAPSIS":"553.899","COUNTRY_CODE":"US","REV_AT_EPOCH":"1265","NORAD_CAT_ID":"56005","RCS_SIZE":"LARGE","TLE_LINE2":"2 56005  43.0027  83.6975 0001163 270.3147  89.7562 15.04483672 12658","MEAN_ELEMENT_THEORY":"SGP4","MEAN_MOTION_DOT":"-0.00000569","SEMIMAJOR_AXIS":"6931.228","BSTAR":"-0.00002543500000","ECCENTRICITY":"0.00011630","MEAN_MOTION_DDOT":"0.0000000000000","MEAN_ANOMALY":"89.7562","PERIOD":"95.714","TLE_LINE1":"1 56005U 23042V   23165.81153093 -.00000569  00000-0 -25435-4 0  9999","GP_ID":"233949885","OBJECT_ID":"2023-042V","CENTER_NAME":"EARTH","DECAY_DATE":null,"LAUNCH_DATE":"2023-03-24","INCLINATION":"43.0027","OBJECT_TYPE":"PAYLOAD","CLASSIFICATION_TYPE":"U","ELEMENT_SET_NO":"999","EPHEMERIS_TYPE":"0","REF_FRAME":"TEME","SITE":"AFETR","RA_OF_ASC_NODE":"83.6975","PERIAPSIS":"552.287","TIME_SYSTEM":"UTC","OBJECT_NAME":"STARLINK-5801"},{"MEAN_MOTION":"15.04490097","FILE":"3933215","APOAPSIS":"553.954","COUNTRY_CODE":"US","ARG_OF_PERICENTER":"269.9789","EPOCH":"2023-06-14T19:00:12.956832","REV_AT_EPOCH":"1265","NORAD_CAT_ID":"56006","RCS_SIZE":"LARGE","BSTAR":"0.00019757000000","ECCENTRICITY":"0.00012710","TLE_LINE2":"2 56006  43.0008  83.5450 0001271 269.9789  90.0909 15.04490097 12650","MEAN_ELEMENT_THEORY":"SGP4","MEAN_MOTION_DOT":"0.00002605","SEMIMAJOR_AXIS":"6931.208","MEAN_MOTION_DDOT":"0.0000000000000","MEAN_ANOMALY":"90.0909","GP_ID":"233948634","OBJECT_ID":"2023-042W","CENTER_NAME":"EARTH","DECAY_DATE":null,"PERIOD":"95.713","TLE_LINE1":"1 56006U 23042W   23165.79181663  .00002605  00000-0  19757-3 0  9991","EPHEMERIS_TYPE":"0","REF_FRAME":"TEME","INCLINATION":"43.0008","LAUNCH_DATE":"2023-03-24","OBJECT_TYPE":"PAYLOAD","CLASSIFICATION_TYPE":"U","ELEMENT_SET_NO":"999","PERIAPSIS":"552.192","TIME_SYSTEM":"UTC","OBJECT_NAME":"STARLINK-5794","SITE":"AFETR","RA_OF_ASC_NODE":"83.5450"}];
